[
    {
        "Altitude(m)": 567586.0013144122,
        "Argument of Periapsis(deg)": -0.007534386927657468,
        "Eccentricity": 0.0,
        "Inclination(deg)": 97.0,
        "Latitude(deg)": -6.857687008775541,
        "Longitude(deg)": 20.080353636623045,
        "Mean Anomaly(deg)": -6.736652243604159,
        "RAAN(deg)": 120.00198235120617,
        "Satellite Name": "Starlink Shell 3 1871",
        "Satellite Number": 1871,
        "Semi-Major Axis(m)": 6938478.169268562,
        "Time(s)": 190
    },
    {
        "Altitude(m)": 567460.8660929749,
        "Argument of Periapsis(deg)": -0.007930933608060494,
        "Eccentricity": 0.0,
        "Inclination(deg)": 97.0,
        "Latitude(deg)": -6.233610330794261,
        "Longitude(deg)": 19.961455986509463,
        "Mean Anomaly(deg)": -6.111176045899152,
        "RAAN(deg)": 120.00208668548017,
        "Satellite Name": "Starlink Shell 3 1871",
        "Satellite Number": 1871,
        "Semi-Major Axis(m)": 6938478.169268562,
        "Time(s)": 200
    },
    {
        "Altitude(m)": 567339.824570135,
        "Argument of Periapsis(deg)": -0.008327480288463517,
        "Eccentricity": 0.0,
        "Inclination(deg)": 97.0,
        "Latitude(deg)": -5.60948916205005,
        "Longitude(deg)": 19.84273795490389,
        "Mean Anomaly(deg)": -5.485699848194042,
        "RAAN(deg)": 120.00219101975418,
        "Satellite Name": "Starlink Shell 3 1871",
        "Satellite Number": 1871,
        "Semi-Major Axis(m)": 6938478.169268562,
        "Time(s)": 210
    },
    {
        "Altitude(m)": 567222.9061913786,
        "Argument of Periapsis(deg)": -0.008724026968866542,
        "Eccentricity": 0.0,
        "Inclination(deg)": 97.0,
        "Latitude(deg)": -4.985326481978464,
        "Longitude(deg)": 19.72418075353035,
        "Mean Anomaly(deg)": -4.860223650489048,
        "RAAN(deg)": 120.00229535402818,
        "Satellite Name": "Starlink Shell 3 1871",
        "Satellite Number": 1871,
        "Semi-Major Axis(m)": 6938478.169268562,
        "Time(s)": 220
    },
    {
        "Altitude(m)": 567110.138380405,
        "Argument of Periapsis(deg)": -0.009120573649269567,
        "Eccentricity": 0.0,
        "Inclination(deg)": 97.0,
        "Latitude(deg)": -4.361125271327022,
        "Longitude(deg)": 19.605765745229064,
        "Mean Anomaly(deg)": -4.2347474527839255,
        "RAAN(deg)": 120.0023996883022,
        "Satellite Name": "Starlink Shell 3 1871",
        "Satellite Number": 1871,
        "Semi-Major Axis(m)": 6938478.169268562,
        "Time(s)": 230
    },
    {
        "Altitude(m)": 567001.5465285341,
        "Argument of Periapsis(deg)": -0.009517120329672592,
        "Eccentricity": 0.0,
        "Inclination(deg)": 97.0,
        "Latitude(deg)": -3.7368885123216726,
        "Longitude(deg)": 19.48747493043984,
        "Mean Anomaly(deg)": -3.609271255078931,
        "RAAN(deg)": 120.0025040225762,
        "Satellite Name": "Starlink Shell 3 1871",
        "Satellite Number": 1871,
        "Semi-Major Axis(m)": 6938478.169268562,
        "Time(s)": 240
    },
    {
        "Altitude(m)": 566897.1539851702,
        "Argument of Periapsis(deg)": -0.009913667010075618,
        "Eccentricity": 0.0,
        "Inclination(deg)": 97.0,
        "Latitude(deg)": -3.112619188812948,
        "Longitude(deg)": 19.369289921077158,
        "Mean Anomaly(deg)": -2.9837950573739103,
        "RAAN(deg)": 120.00260835685022,
        "Satellite Name": "Starlink Shell 3 1871",
        "Satellite Number": 1871,
        "Semi-Major Axis(m)": 6938478.169268562,
        "Time(s)": 250
    },
    {
        "Altitude(m)": 566796.9820492915,
        "Argument of Periapsis(deg)": -0.010310213690478642,
        "Eccentricity": 0.0,
        "Inclination(deg)": 97.0,
        "Latitude(deg)": -2.488320286401732,
        "Longitude(deg)": 19.25119242750732,
        "Mean Anomaly(deg)": -2.3583188596688136,
        "RAAN(deg)": 120.00271269112422,
        "Satellite Name": "Starlink Shell 3 1871",
        "Satellite Number": 1871,
        "Semi-Major Axis(m)": 6938478.169268562,
        "Time(s)": 260
    },
    {
        "Altitude(m)": 566701.0499619674,
        "Argument of Periapsis(deg)": -0.010706760370881667,
        "Eccentricity": 0.0,
        "Inclination(deg)": 97.0,
        "Latitude(deg)": -1.863994792549039,
        "Longitude(deg)": 19.13316474572001,
        "Mean Anomaly(deg)": -1.7328426619638182,
        "RAAN(deg)": 120.00281702539824,
        "Satellite Name": "Starlink Shell 3 1871",
        "Satellite Number": 1871,
        "Semi-Major Axis(m)": 6938478.169268562,
        "Time(s)": 270
    },
    {
        "Altitude(m)": 566609.3748999458,
        "Argument of Periapsis(deg)": -0.011103307051284692,
        "Eccentricity": 0.0,
        "Inclination(deg)": 97.0,
        "Latitude(deg)": -1.2396456966741227,
        "Longitude(deg)": 19.01518873178629,
        "Mean Anomaly(deg)": -1.107366464258696,
        "RAAN(deg)": 120.00292135967224,
        "Satellite Name": "Starlink Shell 3 1871",
        "Satellite Number": 1871,
        "Semi-Major Axis(m)": 6938478.169268562,
        "Time(s)": 280
    },
    {
        "Altitude(m)": 566521.9719702835,
        "Argument of Periapsis(deg)": -0.011499853731687715,
        "Eccentricity": 0.0,
        "Inclination(deg)": 97.0,
        "Latitude(deg)": -0.6152759902406831,
        "Longitude(deg)": 18.897246289316136,
        "Mean Anomaly(deg)": -0.48189026655370104,
        "RAAN(deg)": 120.00302569394627,
        "Satellite Name": "Starlink Shell 3 1871",
        "Satellite Number": 1871,
        "Semi-Major Axis(m)": 6938478.169268562,
        "Time(s)": 290
    },
    {
        "Altitude(m)": 566438.8542060017,
        "Argument of Periapsis(deg)": -0.011896400412090741,
        "Eccentricity": 0.0,
        "Inclination(deg)": 97.0,
        "Latitude(deg)": 0.009111333166628911,
        "Longitude(deg)": 18.7793198570086,
        "Mean Anomaly(deg)": 0.14358593115131937,
        "RAAN(deg)": 120.00313002822024,
        "Satellite Name": "Starlink Shell 3 1871",
        "Satellite Number": 1871,
        "Semi-Major Axis(m)": 6938478.169268562,
        "Time(s)": 300
    },
    {
        "Altitude(m)": 566360.0325628461,
        "Argument of Periapsis(deg)": -0.012292947092493765,
        "Eccentricity": 0.0,
        "Inclination(deg)": 97.0,
        "Latitude(deg)": 0.633513277767243,
        "Longitude(deg)": 18.661391383389137,
        "Mean Anomaly(deg)": 0.7690621288563398,
        "RAAN(deg)": 120.00323436249427,
        "Satellite Name": "Starlink Shell 3 1871",
        "Satellite Number": 1871,
        "Semi-Major Axis(m)": 6938478.169268562,
        "Time(s)": 310
    },
    {
        "Altitude(m)": 566285.5159170597,
        "Argument of Periapsis(deg)": -0.012689493772896788,
        "Eccentricity": 0.0,
        "Inclination(deg)": 97.0,
        "Latitude(deg)": 1.2579268455162795,
        "Longitude(deg)": 18.54344281444678,
        "Mean Anomaly(deg)": 1.3945383265614366,
        "RAAN(deg)": 120.00333869676827,
        "Satellite Name": "Starlink Shell 3 1871",
        "Satellite Number": 1871,
        "Semi-Major Axis(m)": 6938478.169268562,
        "Time(s)": 320
    },
    {
        "Altitude(m)": 566215.3110642271,
        "Argument of Periapsis(deg)": -0.013086040453299813,
        "Eccentricity": 0.0,
        "Inclination(deg)": 97.0,
        "Latitude(deg)": 1.882349036035795,
        "Longitude(deg)": 18.425456581265873,
        "Mean Anomaly(deg)": 2.020014524266559,
        "RAAN(deg)": 120.00344303104228,
        "Satellite Name": "Starlink Shell 3 1871",
        "Satellite Number": 1871,
        "Semi-Major Axis(m)": 6938478.169268562,
        "Time(s)": 330
    },
    {
        "Altitude(m)": 566149.4227191984,
        "Argument of Periapsis(deg)": -0.01348258713370284,
        "Eccentricity": 0.0,
        "Inclination(deg)": 97.0,
        "Latitude(deg)": 2.5067768465417344,
        "Longitude(deg)": 18.30741457474634,
        "Mean Anomaly(deg)": 2.6454907219715538,
        "RAAN(deg)": 120.00354736531628,
        "Satellite Name": "Starlink Shell 3 1871",
        "Satellite Number": 1871,
        "Semi-Major Axis(m)": 6938478.169268562,
        "Time(s)": 340
    },
    {
        "Altitude(m)": 566087.8535170408,
        "Argument of Periapsis(deg)": -0.013879133814105863,
        "Eccentricity": 0.0,
        "Inclination(deg)": 97.0,
        "Latitude(deg)": 3.131207271768865,
        "Longitude(deg)": 18.189298633126025,
        "Mean Anomaly(deg)": 3.2709669196765487,
        "RAAN(deg)": 120.0036516995903,
        "Satellite Name": "Starlink Shell 3 1871",
        "Satellite Number": 1871,
        "Semi-Major Axis(m)": 6938478.169268562,
        "Time(s)": 350
    },
    {
        "Altitude(m)": 566030.6040150573,
        "Argument of Periapsis(deg)": -0.01427568049450889,
        "Eccentricity": 0.0,
        "Inclination(deg)": 97.0,
        "Latitude(deg)": 3.7556373038878337,
        "Longitude(deg)": 18.0710910293988,
        "Mean Anomaly(deg)": 3.896443117381569,
        "RAAN(deg)": 120.0037560338643,
        "Satellite Name": "Starlink Shell 3 1871",
        "Satellite Number": 1871,
        "Semi-Major Axis(m)": 6938478.169268562,
        "Time(s)": 360
    },
    {
        "Altitude(m)": 565977.6726958851,
        "Argument of Periapsis(deg)": -0.014672227174911913,
        "Eccentricity": 0.0,
        "Inclination(deg)": 97.0,
        "Latitude(deg)": 4.38006393240994,
        "Longitude(deg)": 17.952773445721533,
        "Mean Anomaly(deg)": 4.521919315086564,
        "RAAN(deg)": 120.00386036813833,
        "Satellite Name": "Starlink Shell 3 1871",
        "Satellite Number": 1871,
        "Semi-Major Axis(m)": 6938478.169268562,
        "Time(s)": 370
    }
]